{
  "type": "FeatureCollection",
  "features": [
    {
      "type": "Feature",
      "properties": {
        "norad_id": 31327,
        "name": "FENGYUN 1C DEB",
        "group": "fengyun-1c-debris",
        "lat": 48.755923080838365,
        "lon": -166.52853255764165,
        "alt_km": 582.6732291906092,
        "timestamp": "2025-12-25T11:37:44.717263+00:00",
        "meta_object_name": "FENGYUN 1C DEB",
        "meta_object_id": "1999-025BQF",
        "meta_epoch": "2025-12-23T17:44:43.956096",
        "meta_mean_motion": 15.1146544,
        "meta_eccentricity": 0.00846552,
        "meta_inclination": 98.9834,
        "meta_ra_of_asc_node": 1.0282,
        "meta_arg_of_pericenter": 333.8277,
        "meta_mean_anomaly": 25.8681,
        "meta_ephemeris_type": 0,
        "meta_classification_type": "U",
        "meta_norad_cat_id": 31327,
        "meta_element_set_no": 999,
        "meta_rev_at_epoch": 265,
        "meta_bstar": 0.0014751256,
        "meta_mean_motion_dot": 0.00027202,
        "meta_mean_motion_ddot": 0,
        "tle_line1": "1 31327U 99025BQF 25357.73939764  .00027202  00000+0  14751-2 0  9993",
        "tle_line2": "2 31327  98.9834   1.0282 0084655 333.8277  25.8681 15.11465440  2657"
      },
      "geometry": {
        "type": "Point",
        "coordinates": [
          -166.52853255764165,
          48.755923080838365
        ]
      }
    },
    {
      "type": "Feature",
      "properties": {
        "norad_id": 31328,
        "name": "FENGYUN 1C DEB",
        "group": "fengyun-1c-debris",
        "lat": 54.78219303090736,
        "lon": 165.11795859844136,
        "alt_km": 746.1022751249684,
        "timestamp": "2025-12-25T11:37:44.717273+00:00",
        "meta_object_name": "FENGYUN 1C DEB",
        "meta_object_id": "1999-025BQG",
        "meta_epoch": "2025-12-24T21:36:03.399840",
        "meta_mean_motion": 14.28949452,
        "meta_eccentricity": 0.0104277,
        "meta_inclination": 98.4848,
        "meta_ra_of_asc_node": 332.3405,
        "meta_arg_of_pericenter": 180.5061,
        "meta_mean_anomaly": 179.6032,
        "meta_ephemeris_type": 0,
        "meta_classification_type": "U",
        "meta_norad_cat_id": 31328,
        "meta_element_set_no": 999,
        "meta_rev_at_epoch": 97636,
        "meta_bstar": 6.9219e-05,
        "meta_mean_motion_dot": 1.43e-06,
        "meta_mean_motion_ddot": 0,
        "tle_line1": "1 31328U 99025BQG 25358.90003935  .00000143  00000+0  69219-4 0  9992",
        "tle_line2": "2 31328  98.4848 332.3405 0104277 180.5061 179.6032 14.28949452976369"
      },
      "geometry": {
        "type": "Point",
        "coordinates": [
          165.11795859844136,
          54.78219303090736
        ]
      }
    },
    {
      "type": "Feature",
      "properties": {
        "norad_id": 31330,
        "name": "FENGYUN 1C DEB",
        "group": "fengyun-1c-debris",
        "lat": 60.24862347571808,
        "lon": 1.8840821483247252,
        "alt_km": 516.6375777924595,
        "timestamp": "2025-12-25T11:37:44.717283+00:00",
        "meta_object_name": "FENGYUN 1C DEB",
        "meta_object_id": "1999-025BQJ",
        "meta_epoch": "2025-12-25T00:33:06.494112",
        "meta_mean_motion": 15.14516659,
        "meta_eccentricity": 8.24e-05,
        "meta_inclination": 98.8833,
        "meta_ra_of_asc_node": 165.4649,
        "meta_arg_of_pericenter": 299.1396,
        "meta_mean_anomaly": 184.1968,
        "meta_ephemeris_type": 0,
        "meta_classification_type": "U",
        "meta_norad_cat_id": 31330,
        "meta_element_set_no": 999,
        "meta_rev_at_epoch": 97315,
        "meta_bstar": 0.010408,
        "meta_mean_motion_dot": 0.00196836,
        "meta_mean_motion_ddot": 0,
        "tle_line1": "1 31330U 99025BQJ 25359.02299183  .00196836  00000+0  10408-1 0  9999",
        "tle_line2": "2 31330  98.8833 165.4649 0000824 299.1396 184.1968 15.14516659973154"
      },
      "geometry": {
        "type": "Point",
        "coordinates": [
          1.8840821483247252,
          60.24862347571808
        ]
      }
    },
    {
      "type": "Feature",
      "properties": {
        "norad_id": 31331,
        "name": "FENGYUN 1C DEB",
        "group": "fengyun-1c-debris",
        "lat": -66.5416343864721,
        "lon": -176.15315133590272,
        "alt_km": 905.9985723392501,
        "timestamp": "2025-12-25T11:37:44.717293+00:00",
        "meta_object_name": "FENGYUN 1C DEB",
        "meta_object_id": "1999-025BQK",
        "meta_epoch": "2025-12-19T07:00:29.877408",
        "meta_mean_motion": 14.00628517,
        "meta_eccentricity": 0.0053435,
        "meta_inclination": 98.8725,
        "meta_ra_of_asc_node": 18.9328,
        "meta_arg_of_pericenter": 164.3513,
        "meta_mean_anomaly": 195.9319,
        "meta_ephemeris_type": 0,
        "meta_classification_type": "U",
        "meta_norad_cat_id": 31331,
        "meta_element_set_no": 999,
        "meta_rev_at_epoch": 63948,
        "meta_bstar": 0.00038925,
        "meta_mean_motion_dot": 5.44e-06,
        "meta_mean_motion_ddot": 0,
        "tle_line1": "1 31331U 99025BQK 25353.29201247  .00000544  00000+0  38925-3 0  9993",
        "tle_line2": "2 31331  98.8725  18.9328 0053435 164.3513 195.9319 14.00628517639487"
      },
      "geometry": {
        "type": "Point",
        "coordinates": [
          -176.15315133590272,
          -66.5416343864721
        ]
      }
    },
    {
      "type": "Feature",
      "properties": {
        "norad_id": 31332,
        "name": "FENGYUN 1C DEB",
        "group": "fengyun-1c-debris",
        "lat": -39.4580293306431,
        "lon": -177.79978907973768,
        "alt_km": 881.83031481951,
        "timestamp": "2025-12-25T11:37:44.717305+00:00",
        "meta_object_name": "FENGYUN 1C DEB",
        "meta_object_id": "1999-025BQL",
        "meta_epoch": "2025-12-22T23:20:29.361120",
        "meta_mean_motion": 14.1187473,
        "meta_eccentricity": 0.00495822,
        "meta_inclination": 98.7057,
        "meta_ra_of_asc_node": 7.0074,
        "meta_arg_of_pericenter": 356.0586,
        "meta_mean_anomaly": 63.6241,
        "meta_ephemeris_type": 0,
        "meta_classification_type": "U",
        "meta_norad_cat_id": 31332,
        "meta_element_set_no": 999,
        "meta_rev_at_epoch": 96116,
        "meta_bstar": 0.00083351113,
        "meta_mean_motion_dot": 1.497e-05,
        "meta_mean_motion_ddot": 0,
        "tle_line1": "1 31332U 99025BQL 25356.97256205  .00001497  00000+0  83351-3 0  9997",
        "tle_line2": "2 31332  98.7057   7.0074 0049582 356.0586  63.6241 14.11874730961160"
      },
      "geometry": {
        "type": "Point",
        "coordinates": [
          -177.79978907973768,
          -39.4580293306431
        ]
      }
    },
    {
      "type": "Feature",
      "properties": {
        "norad_id": 31333,
        "name": "FENGYUN 1C DEB",
        "group": "fengyun-1c-debris",
        "lat": 28.615393966243214,
        "lon": 8.947515403595641,
        "alt_km": 747.435499528854,
        "timestamp": "2025-12-25T11:37:44.717315+00:00",
        "meta_object_name": "FENGYUN 1C DEB",
        "meta_object_id": "1999-025BQM",
        "meta_epoch": "2025-12-20T18:42:54.770112",
        "meta_mean_motion": 14.26566831,
        "meta_eccentricity": 0.00982731,
        "meta_inclination": 98.4277,
        "meta_ra_of_asc_node": 9.0567,
        "meta_arg_of_pericenter": 2.9268,
        "meta_mean_anomaly": 357.2467,
        "meta_ephemeris_type": 0,
        "meta_classification_type": "U",
        "meta_norad_cat_id": 31333,
        "meta_element_set_no": 999,
        "meta_rev_at_epoch": 96706,
        "meta_bstar": 0.00048897512,
        "meta_mean_motion_dot": 1.199e-05,
        "meta_mean_motion_ddot": 0,
        "tle_line1": "1 31333U 99025BQM 25354.77980058  .00001199  00000+0  48898-3 0  9990",
        "tle_line2": "2 31333  98.4277   9.0567 0098273   2.9268 357.2467 14.26566831967069"
      },
      "geometry": {
        "type": "Point",
        "coordinates": [
          8.947515403595641,
          28.615393966243214
        ]
      }
    },
    {
      "type": "Feature",
      "properties": {
        "norad_id": 31336,
        "name": "FENGYUN 1C DEB",
        "group": "fengyun-1c-debris",
        "lat": -29.205679718656466,
        "lon": 59.31295949457551,
        "alt_km": 791.2929276106042,
        "timestamp": "2025-12-25T11:37:44.717325+00:00",
        "meta_object_name": "FENGYUN 1C DEB",
        "meta_object_id": "1999-025BQQ",
        "meta_epoch": "2025-12-22T10:23:35.729952",
        "meta_mean_motion": 14.38719695,
        "meta_eccentricity": 0.00940279,
        "meta_inclination": 98.4633,
        "meta_ra_of_asc_node": 51.5291,
        "meta_arg_of_pericenter": 89.9469,
        "meta_mean_anomaly": 285.8393,
        "meta_ephemeris_type": 0,
        "meta_classification_type": "U",
        "meta_norad_cat_id": 31336,
        "meta_element_set_no": 999,
        "meta_rev_at_epoch": 97930,
        "meta_bstar": 0.00027821112,
        "meta_mean_motion_dot": 8.54e-06,
        "meta_mean_motion_ddot": 0,
        "tle_line1": "1 31336U 99025BQQ 25356.43305243  .00000854  00000+0  27821-3 0  9995",
        "tle_line2": "2 31336  98.4633  51.5291 0094027  89.9469 285.8393 14.38719695979300"
      },
      "geometry": {
        "type": "Point",
        "coordinates": [
          59.31295949457551,
          -29.205679718656466
        ]
      }
    }
  ]
}